{
  "type": "FeatureCollection",
  "features": [
    {
      "type": "Feature",
      "properties": {
        "norad_id": 38067,
        "name": "COSMOS 2251 DEB",
        "group": "cosmos-2251-debris",
        "lat": -70.36244021623838,
        "lon": -123.07237156951815,
        "alt_km": 742.2548188073688,
        "timestamp": "2025-12-04T10:51:50.504147+00:00",
        "meta_object_name": "COSMOS 2251 DEB",
        "meta_object_id": "1993-036BRZ",
        "meta_epoch": "2025-11-29T04:46:36.876288",
        "meta_mean_motion": 14.61044936,
        "meta_eccentricity": 0.00691529,
        "meta_inclination": 74.017,
        "meta_ra_of_asc_node": 300.4181,
        "meta_arg_of_pericenter": 91.9303,
        "meta_mean_anomaly": 288.2542,
        "meta_ephemeris_type": 0,
        "meta_classification_type": "U",
        "meta_norad_cat_id": 38067,
        "meta_element_set_no": 999,
        "meta_rev_at_epoch": 62358,
        "meta_bstar": 0.00037425936,
        "meta_mean_motion_dot": 1.87e-05,
        "meta_mean_motion_ddot": 0,
        "tle_line1": "1 38067U 93036BRZ 25333.19903792  .00001870  00000+0  37426-3 0  9991",
        "tle_line2": "2 38067  74.0170 300.4181 0069152  91.9303 288.2542 14.61044936623583"
      },
      "geometry": {
        "type": "Point",
        "coordinates": [
          -123.07237156951815,
          -70.36244021623838
        ]
      }
    },
    {
      "type": "Feature",
      "properties": {
        "norad_id": 38068,
        "name": "COSMOS 2251 DEB",
        "group": "cosmos-2251-debris",
        "lat": 67.8100137654285,
        "lon": 8.09391826852389,
        "alt_km": 748.6720759377658,
        "timestamp": "2025-12-04T10:51:50.504157+00:00",
        "meta_object_name": "COSMOS 2251 DEB",
        "meta_object_id": "1993-036BSA",
        "meta_epoch": "2025-11-26T00:12:22.263264",
        "meta_mean_motion": 14.35960004,
        "meta_eccentricity": 0.00240903,
        "meta_inclination": 74.0219,
        "meta_ra_of_asc_node": 338.9788,
        "meta_arg_of_pericenter": 72.1007,
        "meta_mean_anomaly": 288.2769,
        "meta_ephemeris_type": 0,
        "meta_classification_type": "U",
        "meta_norad_cat_id": 38068,
        "meta_element_set_no": 999,
        "meta_rev_at_epoch": 66406,
        "meta_bstar": 0.00028750999,
        "meta_mean_motion_dot": 8.11e-06,
        "meta_mean_motion_ddot": 0,
        "tle_line1": "1 38068U 93036BSA 25330.00859101  .00000811  00000+0  28751-3 0  9998",
        "tle_line2": "2 38068  74.0219 338.9788 0024090  72.1007 288.2769 14.35960004664064"
      },
      "geometry": {
        "type": "Point",
        "coordinates": [
          8.09391826852389,
          67.8100137654285
        ]
      }
    },
    {
      "type": "Feature",
      "properties": {
        "norad_id": 38197,
        "name": "COSMOS 2251 DEB",
        "group": "cosmos-2251-debris",
        "lat": 20.75841035780345,
        "lon": 19.582885672470983,
        "alt_km": 706.718866259911,
        "timestamp": "2025-12-04T10:51:50.504167+00:00",
        "meta_object_name": "COSMOS 2251 DEB",
        "meta_object_id": "1993-036BSM",
        "meta_epoch": "2025-12-03T10:19:00.710112",
        "meta_mean_motion": 14.73077907,
        "meta_eccentricity": 0.01286379,
        "meta_inclination": 73.9396,
        "meta_ra_of_asc_node": 15.3185,
        "meta_arg_of_pericenter": 255.0006,
        "meta_mean_anomaly": 103.6899,
        "meta_ephemeris_type": 0,
        "meta_classification_type": "U",
        "meta_norad_cat_id": 38197,
        "meta_element_set_no": 999,
        "meta_rev_at_epoch": 85618,
        "meta_bstar": 0.0059536549,
        "meta_mean_motion_dot": 0.00043936,
        "meta_mean_motion_ddot": 0,
        "tle_line1": "1 38197U 93036BSM 25337.42986933  .00043936  00000+0  59537-2 0  9998",
        "tle_line2": "2 38197  73.9396  15.3185 0128637 255.0006 103.6899 14.73077907856184"
      },
      "geometry": {
        "type": "Point",
        "coordinates": [
          19.582885672470983,
          20.75841035780345
        ]
      }
    },
    {
      "type": "Feature",
      "properties": {
        "norad_id": 38199,
        "name": "COSMOS 2251 DEB",
        "group": "cosmos-2251-debris",
        "lat": 3.962633491767006,
        "lon": -105.33845551047011,
        "alt_km": 1290.5490019115086,
        "timestamp": "2025-12-04T10:51:50.504177+00:00",
        "meta_object_name": "COSMOS 2251 DEB",
        "meta_object_id": "1993-036BSP",
        "meta_epoch": "2025-12-03T23:27:18.913536",
        "meta_mean_motion": 13.64778984,
        "meta_eccentricity": 0.03692932,
        "meta_inclination": 73.9556,
        "meta_ra_of_asc_node": 76.5844,
        "meta_arg_of_pericenter": 4.8412,
        "meta_mean_anomaly": 355.6113,
        "meta_ephemeris_type": 0,
        "meta_classification_type": "U",
        "meta_norad_cat_id": 38199,
        "meta_element_set_no": 999,
        "meta_rev_at_epoch": 60902,
        "meta_bstar": 0.00068685307,
        "meta_mean_motion_dot": 8.59e-06,
        "meta_mean_motion_ddot": 0,
        "tle_line1": "1 38199U 93036BSP 25337.97730224  .00000859  00000+0  68685-3 0  9992",
        "tle_line2": "2 38199  73.9556  76.5844 0369293   4.8412 355.6113 13.64778984609020"
      },
      "geometry": {
        "type": "Point",
        "coordinates": [
          -105.33845551047011,
          3.962633491767006
        ]
      }
    },
    {
      "type": "Feature",
      "properties": {
        "norad_id": 38208,
        "name": "COSMOS 2251 DEB",
        "group": "cosmos-2251-debris",
        "lat": 31.084516314791436,
        "lon": 105.31599447786543,
        "alt_km": 619.2188845138762,
        "timestamp": "2025-12-04T10:51:50.504188+00:00",
        "meta_object_name": "COSMOS 2251 DEB",
        "meta_object_id": "1993-036BSY",
        "meta_epoch": "2025-12-02T15:06:31.372992",
        "meta_mean_motion": 14.83188605,
        "meta_eccentricity": 0.00039653,
        "meta_inclination": 74.0061,
        "meta_ra_of_asc_node": 98.9729,
        "meta_arg_of_pericenter": 183.0621,
        "meta_mean_anomaly": 198.654,
        "meta_ephemeris_type": 0,
        "meta_classification_type": "U",
        "meta_norad_cat_id": 38208,
        "meta_element_set_no": 999,
        "meta_rev_at_epoch": 71009,
        "meta_bstar": 0.003692922,
        "meta_mean_motion_dot": 0.0003026,
        "meta_mean_motion_ddot": 0,
        "tle_line1": "1 38208U 93036BSY 25336.62952978  .00030260  00000+0  36929-2 0  9990",
        "tle_line2": "2 38208  74.0061  98.9729 0003965 183.0621 198.6540 14.83188605710093"
      },
      "geometry": {
        "type": "Point",
        "coordinates": [
          105.31599447786543,
          31.084516314791436
        ]
      }
    },
    {
      "type": "Feature",
      "properties": {
        "norad_id": 38212,
        "name": "COSMOS 2251 DEB",
        "group": "cosmos-2251-debris",
        "lat": 17.515629462206313,
        "lon": -92.32607602396175,
        "alt_km": 571.529554984877,
        "timestamp": "2025-12-04T10:51:50.504197+00:00",
        "meta_object_name": "COSMOS 2251 DEB",
        "meta_object_id": "1993-036BTC",
        "meta_epoch": "2025-11-30T02:08:11.826528",
        "meta_mean_motion": 14.77531577,
        "meta_eccentricity": 0.00935039,
        "meta_inclination": 74.0506,
        "meta_ra_of_asc_node": 101.4043,
        "meta_arg_of_pericenter": 172.1987,
        "meta_mean_anomaly": 188.0671,
        "meta_ephemeris_type": 0,
        "meta_classification_type": "U",
        "meta_norad_cat_id": 38212,
        "meta_element_set_no": 999,
        "meta_rev_at_epoch": 81123,
        "meta_bstar": 0.000758158,
        "meta_mean_motion_dot": 5.788e-05,
        "meta_mean_motion_ddot": 0,
        "tle_line1": "1 38212U 93036BTC 25334.08902577  .00005788  00000+0  75816-3 0  9999",
        "tle_line2": "2 38212  74.0506 101.4043 0093503 172.1987 188.0671 14.77531577811231"
      },
      "geometry": {
        "type": "Point",
        "coordinates": [
          -92.32607602396175,
          17.515629462206313
        ]
      }
    },
    {
      "type": "Feature",
      "properties": {
        "norad_id": 38220,
        "name": "COSMOS 2251 DEB",
        "group": "cosmos-2251-debris",
        "lat": -44.639519374506015,
        "lon": -78.59158361599785,
        "alt_km": 599.7095517340331,
        "timestamp": "2025-12-04T10:51:50.504207+00:00",
        "meta_object_name": "COSMOS 2251 DEB",
        "meta_object_id": "1993-036BTL",
        "meta_epoch": "2025-12-02T14:23:55.852800",
        "meta_mean_motion": 14.91852197,
        "meta_eccentricity": 0.0003685,
        "meta_inclination": 74.0146,
        "meta_ra_of_asc_node": 88.6858,
        "meta_arg_of_pericenter": 99.6245,
        "meta_mean_anomaly": 260.5354,
        "meta_ephemeris_type": 0,
        "meta_classification_type": "U",
        "meta_norad_cat_id": 38220,
        "meta_element_set_no": 999,
        "meta_rev_at_epoch": 71219,
        "meta_bstar": 0.0045511067,
        "meta_mean_motion_dot": 0.00046254,
        "meta_mean_motion_ddot": 0,
        "tle_line1": "1 38220U 93036BTL 25336.59995200  .00046254  00000+0  45511-2 0  9992",
        "tle_line2": "2 38220  74.0146  88.6858 0003685  99.6245 260.5354 14.91852197712191"
      },
      "geometry": {
        "type": "Point",
        "coordinates": [
          -78.59158361599785,
          -44.639519374506015
        ]
      }
    }
  ]
}